      2.10          N: GNSS NAV DATA                        RINEX VERSION / TYPE
fic2rin                                 10/23/2021 00:17:38 PGM / RUN BY / DATE
                                                            END OF HEADER
14 21 10 22 20  0  0.0-2.407841384411e-05-7.389644451905e-12 0.000000000000e+00
    7.600000000000e+01 1.020312500000e+02 4.764841331910e-09-3.376486712339e-01
    5.114823579788e-06 1.158128026873e-03 4.075467586517e-06 5.153646221161e+03
    5.040000000000e+05 6.891787052155e-08-1.848761534784e+00-2.421438694000e-08
    9.550349664112e-01 3.008125000000e+02 3.127697057457e+00-8.394992542279e-09
    1.553636143753e-10 1.000000000000e+00 2.180000000000e+03 0.000000000000e+00
    2.400000000000e+00 0.000000000000e+00-7.916241884232e-09 5.880000000000e+02
    4.968000000000e+05 4.000000000000e+00
18 21 10 22 20  0  0.0 3.066346980631e-04-5.229594535194e-12 0.000000000000e+00
    1.670000000000e+02-6.906250000000e+01 3.972665477463e-09 1.322359782301e+00
   -3.511086106300e-06 2.040812862106e-03 1.052953302860e-05 5.153647123337e+03
    5.040000000000e+05-1.862645149231e-08 2.245357078306e-01 7.078051567078e-08
    9.699505309729e-01 1.816250000000e+02 3.009345305414e+00-7.685677282166e-09
    1.253623647028e-10 1.000000000000e+00 2.180000000000e+03 0.000000000000e+00
    2.400000000000e+00 0.000000000000e+00-8.381903171539e-09 9.350000000000e+02
    4.968000000000e+05 4.000000000000e+00
11 21 10 22 20  0  0.0 2.121180295944e-05-2.273736754432e-13 0.000000000000e+00
    5.100000000000e+01-7.356250000000e+01 4.069098065696e-09-2.523457537461e+00
   -3.654509782791e-06 4.428771790117e-04 1.124478876591e-05 5.153727527618e+03
    5.040000000000e+05-7.450580596924e-09 2.614405769066e-01-1.303851604462e-08
    9.612131079156e-01 1.595625000000e+02 2.347972791108e+00-7.788538709614e-09
    1.985797002130e-10 1.000000000000e+00 2.180000000000e+03 0.000000000000e+00
    4.800000000000e+01 6.300000000000e+01-8.847564458847e-09 5.630000000000e+02
    4.968000000000e+05 4.000000000000e+00
28 21 10 22 20  0  0.0 4.775156266987e-04-7.389644451905e-12 0.000000000000e+00
    3.700000000000e+01 1.079062500000e+02 4.315536902291e-09-2.500403784494e+00
    5.589798092842e-06 1.743662415538e-02 3.466382622719e-06 5.153718603134e+03
    5.040000000000e+05 1.937150955200e-07-1.797068941169e+00 1.229345798492e-07
    9.706841478167e-01 3.174687500000e+02-1.324186378889e+00-7.914615389785e-09
    2.225092684042e-10 1.000000000000e+00 2.180000000000e+03 0.000000000000e+00
    2.400000000000e+00 6.300000000000e+01-1.117587089539e-08 3.700000000000e+01
    4.968000000000e+05 4.000000000000e+00
13 21 10 22 19 59 44.0 2.034464851022e-04 5.570655048359e-12 0.000000000000e+00
    1.400000000000e+01-3.096875000000e+01 4.639121809473e-09 2.731667471589e+00
   -1.657754182816e-06 5.606909398921e-03 7.139518857002e-06 5.153675302505e+03
    5.039840000000e+05 1.117587089539e-08 2.431356093386e+00-8.381903171539e-08
    9.683167572282e-01 2.464375000000e+02 9.739407044025e-01-7.901757711354e-09
   -4.121600252623e-10 1.000000000000e+00 2.180000000000e+03 0.000000000000e+00
    2.400000000000e+00 0.000000000000e+00-1.117587089539e-08 1.400000000000e+01
    4.987500000000e+05 4.000000000000e+00
 7 21 10 22 19 59 44.0 2.666744403541e-04 6.025402399246e-12 0.000000000000e+00
    0.000000000000e+00 4.690625000000e+01 4.641621913612e-09 4.217572546483e-01
    2.622604370117e-06 1.529163890518e-02 1.120194792747e-05 5.153736818314e+03
    5.039840000000e+05-8.381903171539e-08-2.931033005312e+00 1.527369022369e-07
    9.517632115695e-01 1.602812500000e+02-2.303595403778e+00-8.195341368863e-09
   -3.943021385525e-10 1.000000000000e+00 2.180000000000e+03 0.000000000000e+00
    2.400000000000e+00 0.000000000000e+00-1.117587089539e-08 0.000000000000e+00
    4.987800000000e+05 4.000000000000e+00
14 21 10 22 20 59 44.0-2.410402521491e-05-7.389644451905e-12 0.000000000000e+00
    7.700000000000e+01 1.008750000000e+02 4.790199531038e-09 1.851789192967e-01
    5.032867193222e-06 1.158755621873e-03 3.686174750328e-06 5.153647384644e+03
    5.075840000000e+05 4.097819328308e-08-1.848791628472e+00-1.303851604462e-08
    9.550354330821e-01 3.056250000000e+02 3.127635240390e+00-8.416064848597e-09
    1.528635102359e-10 1.000000000000e+00 2.180000000000e+03 0.000000000000e+00
    2.400000000000e+00 0.000000000000e+00-7.916241884232e-09 5.890000000000e+02
    5.004000000000e+05 4.000000000000e+00
13 21 10 22 21 59 44.0 2.034869976342e-04 5.570655048359e-12 0.000000000000e+00
    1.500000000000e+01-3.196875000000e+01 4.629121392915e-09-2.501351088319e+00
   -1.827254891396e-06 5.607158062048e-03 6.973743438721e-06 5.153674818039e+03
    5.111840000000e+05 9.685754776001e-08 2.431298741146e+00-3.911554813385e-08
    9.683138928346e-01 2.480625000000e+02 9.739549941863e-01-7.933187591963e-09
   -3.457286867018e-10 1.000000000000e+00 2.180000000000e+03 0.000000000000e+00
    2.400000000000e+00 0.000000000000e+00-1.117587089539e-08 1.500000000000e+01
    5.040000000000e+05 4.000000000000e+00
 7 21 10 22 21 59 44.0 2.667182125151e-04 6.025402399246e-12 0.000000000000e+00
    1.700000000000e+01 4.106250000000e+01 4.627692761979e-09 1.471857351372e+00
    2.225860953331e-06 1.529173494782e-02 1.148693263531e-05 5.153737949371e+03
    5.111840000000e+05-3.147870302200e-07-2.931092471469e+00 1.210719347000e-07
    9.517606953504e-01 1.585312500000e+02-2.303551854170e+00-8.107123408517e-09
   -2.875119760278e-10 1.000000000000e+00 2.180000000000e+03 0.000000000000e+00
    2.400000000000e+00 0.000000000000e+00-1.117587089539e-08 1.700000000000e+01
    5.040000000000e+05 4.000000000000e+00
 2 21 10 22 22  0  0.0-6.386903114617e-04-1.818989403546e-12 0.000000000000e+00
    3.800000000000e+01-1.048750000000e+02 3.893733618206e-09 2.338310363487e+00
   -5.243346095085e-06 2.037353022024e-02 1.076422631741e-05 5.153786615372e+03
    5.112000000000e+05 2.570450305939e-07 1.281511190371e-01-3.725290298462e-08
    9.646815623335e-01 1.675000000000e+02-1.486402421690e+00-7.377092999820e-09
   -5.821671067396e-11 1.000000000000e+00 2.180000000000e+03 0.000000000000e+00
    2.400000000000e+00 0.000000000000e+00-1.769512891769e-08 3.800000000000e+01
    5.040000000000e+05 4.000000000000e+00
 1 21 10 22 22  0  0.0 5.318312905729e-04-1.068656274583e-11 0.000000000000e+00
    3.500000000000e+01-6.962500000000e+01 3.521932416908e-09 2.104142365610e+00
   -3.717839717865e-06 1.107252505608e-02 1.092068850994e-05 5.153680500031e+03
    5.112000000000e+05-9.685754776001e-08 2.149612996010e-01-2.216547727585e-07
    9.862029173900e-01 1.829375000000e+02 8.880991555460e-01-7.464953802432e-09
    1.114332130692e-10 1.000000000000e+00 2.180000000000e+03 0.000000000000e+00
    2.400000000000e+00 0.000000000000e+00 5.122274160385e-09 3.500000000000e+01
    5.040000000000e+05 4.000000000000e+00
 4 21 10 22 22  0  0.0-2.032825723290e-04 5.684341886081e-13 0.000000000000e+00
    3.500000000000e+01-2.946875000000e+01 4.867702759358e-09-2.357308859262e+00
   -1.545995473862e-06 1.466317451559e-03 6.446614861488e-06 5.153678916931e+03
    5.112000000000e+05-2.235174179077e-08 2.332318755741e+00-3.352761268616e-08
    9.606759682844e-01 2.597812500000e+02-3.108721563143e+00-8.128195714834e-09
   -3.050127050035e-10 1.000000000000e+00 2.180000000000e+03 0.000000000000e+00
    2.400000000000e+00 0.000000000000e+00-4.190951585770e-09 3.500000000000e+01
    5.040000000000e+05 4.000000000000e+00
16 21 10 22 22  0  0.0-4.114848561585e-04-6.366462912410e-12 0.000000000000e+00
    4.100000000000e+01 8.300000000000e+01 4.380182452181e-09-1.086128116110e+00
    4.451721906662e-06 1.231049874332e-02 3.725290298462e-06 5.153778284073e+03
    5.112000000000e+05 2.663582563400e-07-1.800627695668e+00 7.823109626770e-08
    9.715655501078e-01 3.126875000000e+02 6.819365972136e-01-8.178912113090e-09
    1.721500278825e-10 1.000000000000e+00 2.180000000000e+03 0.000000000000e+00
    2.400000000000e+00 0.000000000000e+00-1.024454832077e-08 4.100000000000e+01
    5.040000000000e+05 4.000000000000e+00
 9 21 10 22 22  0  0.0-3.618923947215e-04-1.136868377216e-13 0.000000000000e+00
    3.600000000000e+01-2.853125000000e+01 5.093069289636e-09-1.521368062652e+00
   -1.348555088043e-06 2.288561896421e-03 5.979090929031e-06 5.153680683136e+03
    5.112000000000e+05-3.352761268616e-08 2.280288895140e+00 3.539025783539e-08
    9.535631494013e-01 2.643437500000e+02 1.819759975302e+00-8.257486814613e-09
   -2.682254583813e-10 1.000000000000e+00 2.180000000000e+03 0.000000000000e+00
    2.400000000000e+00 0.000000000000e+00 1.396983861923e-09 3.600000000000e+01
    5.040000000000e+05 4.000000000000e+00
 5 21 10 22 22  0  0.0-5.854852497578e-05-1.250555214938e-12 0.000000000000e+00
    9.400000000000e+01 2.721875000000e+01 4.655908222980e-09-1.560357491976e+00
    1.518055796623e-06 6.053063087165e-03 7.286667823792e-06 5.153600486755e+03
    5.112000000000e+05 1.378357410431e-07 1.211966543066e+00 2.607703208923e-08
    9.577454961385e-01 2.311562500000e+02 1.010740977762e+00-8.031763126602e-09
    6.185971956276e-10 1.000000000000e+00 2.180000000000e+03 0.000000000000e+00
    2.400000000000e+00 0.000000000000e+00-1.117587089539e-08 9.400000000000e+01
    5.040000000000e+05 4.000000000000e+00
 3 21 10 22 22  0  0.0-3.341771662235e-04-1.227817847393e-11 0.000000000000e+00
    9.400000000000e+01 3.018750000000e+01 4.425541484424e-09 9.461618035741e-01
    1.391395926476e-06 3.895647125319e-03 7.316470146179e-06 5.153744144440e+03
    5.112000000000e+05-6.332993507385e-08 1.250822405042e+00 1.490116119385e-08
    9.707394958593e-01 2.425312500000e+02 9.996332148730e-01-7.996047353182e-09
    4.893060958486e-10 1.000000000000e+00 2.180000000000e+03 0.000000000000e+00
    3.400000000000e+00 0.000000000000e+00 1.862645149231e-09 9.400000000000e+01
    5.040000000000e+05 4.000000000000e+00
